{"fetched_at":"2026-03-29T16:36:15Z","count":15609,"tles":[{"name":"STARLINK-2568","line1":"1 48406U 21038BF  26087.71449706  .00013717  00000+0  47413-3 0  9997","line2":"2 48406  53.1585 247.1860 0000814  63.3343 296.7741 15.30217200270314","category":"Starlink"}]}