{
  "norad_id": 48406,
  "name": "STARLINK-2568",
  "history": [
    {
      "epoch": "2026-03-28T17:08:52.545984",
      "apogee_km": 475.72177807781463,
      "perigee_km": 474.60564952356526,
      "latitude_deg": 37.51740657224904,
      "longitude_deg": 169.19171776017174,
      "semi_major_axis_km": 6853.30071380069,
      "eccentricity": 8.143e-05,
      "inclination_deg": 53.1585,
      "raan_deg": 247.186,
      "arg_perigee_deg": 63.3343,
      "mean_anomaly_deg": 296.7741,
      "mean_motion_rev_day": 15.302172
    }
  ]
}